start=new Date('2021-09-11T00:00:00.000Z').valueOf();
sats=[{"REF_FRAME":"TEME","TIME_SYSTEM":"UTC","EPOCH":"2021-09-10T14:50:24.687456","PERIAPSIS":"546.742","TLE_LINE2":"2 48644  53.0539 288.6586 0000682 105.6394 254.4670 15.06399893 16367","NORAD_CAT_ID":"48644","CENTER_NAME":"EARTH","MEAN_ANOMALY":"254.4670","MEAN_ELEMENT_THEORY":"SGP4","APOAPSIS":"547.686","REV_AT_EPOCH":"1636","RCS_SIZE":"LARGE","BSTAR":"0.00011654000000","INCLINATION":"53.0539","ARG_OF_PERICENTER":"105.6394","ECCENTRICITY":"0.00006820","TLE_LINE1":"1 48644U 21044G   21253.61834129  .00001455  00000-0  11654-3 0  9999","LAUNCH_DATE":"2021-05-26","OBJECT_ID":"2021-044G","ELEMENT_SET_NO":"999","CLASSIFICATION_TYPE":"U","GP_ID":"184475701","OBJECT_NAME":"STARLINK-2695","COUNTRY_CODE":"US","OBJECT_TYPE":"PAYLOAD","EPHEMERIS_TYPE":"0","MEAN_MOTION_DDOT":"0.0000000000000","MEAN_MOTION_DOT":"0.00001455","DECAY_DATE":null,"RA_OF_ASC_NODE":"288.6586","SEMIMAJOR_AXIS":"6925.349","FILE":"3112758","MEAN_MOTION":"15.06399893","SITE":"AFETR","PERIOD":"95.592"},{"MEAN_MOTION_DDOT":"0.0000000000000","MEAN_MOTION_DOT":"-0.00000587","DECAY_DATE":null,"RA_OF_ASC_NODE":"287.4857","ELEMENT_SET_NO":"999","CLASSIFICATION_TYPE":"U","GP_ID":"184476211","OBJECT_NAME":"STARLINK-2733","COUNTRY_CODE":"US","EPHEMERIS_TYPE":"0","OBJECT_TYPE":"PAYLOAD","FILE":"3112758","MEAN_MOTION":"15.06393184","SITE":"AFETR","PERIOD":"95.593","SEMIMAJOR_AXIS":"6925.369","MEAN_ELEMENT_THEORY":"SGP4","APOAPSIS":"547.556","REV_AT_EPOCH":"1640","REF_FRAME":"TEME","TIME_SYSTEM":"UTC","EPOCH":"2021-09-10T21:07:16.031424","TLE_LINE2":"2 48645  53.0542 287.4857 0000464 106.9730 253.1310 15.06393184 16405","PERIAPSIS":"546.913","NORAD_CAT_ID":"48645","CENTER_NAME":"EARTH","MEAN_ANOMALY":"253.1310","TLE_LINE1":"1 48645U 21044H   21253.88004666 -.00000587  00000-0 -20546-4 0  9992","OBJECT_ID":"2021-044H","LAUNCH_DATE":"2021-05-26","RCS_SIZE":"LARGE","BSTAR":"-0.00002054600000","ARG_OF_PERICENTER":"106.9730","INCLINATION":"53.0542","ECCENTRICITY":"0.00004640"},{"TIME_SYSTEM":"UTC","REF_FRAME":"TEME","EPOCH":"2021-09-10T06:42:06.421536","CENTER_NAME":"EARTH","TLE_LINE2":"2 48646  53.0546 290.1844 0000399 105.2934 254.8099 15.06390239 16312","NORAD_CAT_ID":"48646","PERIAPSIS":"546.967","MEAN_ANOMALY":"254.8099","MEAN_ELEMENT_THEORY":"SGP4","APOAPSIS":"547.520","REV_AT_EPOCH":"1631","RCS_SIZE":"LARGE","BSTAR":"0.00008606200000","ECCENTRICITY":"0.00003990","INCLINATION":"53.0546","ARG_OF_PERICENTER":"105.2934","TLE_LINE1":"1 48646U 21044J   21253.27924099  .00001001  00000-0  86062-4 0  9992","LAUNCH_DATE":"2021-05-26","OBJECT_ID":"2021-044J","GP_ID":"184443474","CLASSIFICATION_TYPE":"U","ELEMENT_SET_NO":"999","COUNTRY_CODE":"US","OBJECT_NAME":"STARLINK-2732","OBJECT_TYPE":"PAYLOAD","EPHEMERIS_TYPE":"0","MEAN_MOTION_DDOT":"0.0000000000000","MEAN_MOTION_DOT":"0.00001001","DECAY_DATE":null,"RA_OF_ASC_NODE":"290.1844","SEMIMAJOR_AXIS":"6925.378","MEAN_MOTION":"15.06390239","FILE":"3112362","PERIOD":"95.593","SITE":"AFETR"},{"REV_AT_EPOCH":"1636","MEAN_ELEMENT_THEORY":"SGP4","APOAPSIS":"547.575","CENTER_NAME":"EARTH","PERIAPSIS":"546.902","TLE_LINE2":"2 48647  53.0552 288.7163 0000486 133.1505 226.9524 15.06391913 16366","NORAD_CAT_ID":"48647","MEAN_ANOMALY":"226.9524","TIME_SYSTEM":"UTC","REF_FRAME":"TEME","EPOCH":"2021-09-10T14:34:29.745408","LAUNCH_DATE":"2021-05-26","OBJECT_ID":"2021-044K","TLE_LINE1":"1 48647U 21044K   21253.60728872 -.00000520  00000-0 -16070-4 0  9990","BSTAR":"-0.00001607000000","ECCENTRICITY":"0.00004860","ARG_OF_PERICENTER":"133.1505","INCLINATION":"53.0552","RCS_SIZE":"LARGE","DECAY_DATE":null,"RA_OF_ASC_NODE":"288.7163","MEAN_MOTION_DDOT":"0.0000000000000","MEAN_MOTION_DOT":"-0.00000520","OBJECT_TYPE":"PAYLOAD","EPHEMERIS_TYPE":"0","CLASSIFICATION_TYPE":"U","GP_ID":"184475795","ELEMENT_SET_NO":"999","COUNTRY_CODE":"US","OBJECT_NAME":"STARLINK-2691","FILE":"3112758","MEAN_MOTION":"15.06391913","PERIOD":"95.593","SITE":"AFETR","SEMIMAJOR_AXIS":"6925.373"},{"EPHEMERIS_TYPE":"0","OBJECT_TYPE":"PAYLOAD","GP_ID":"184476024","CLASSIFICATION_TYPE":"U","ELEMENT_SET_NO":"999","COUNTRY_CODE":"US","OBJECT_NAME":"STARLINK-2521","DECAY_DATE":null,"RA_OF_ASC_NODE":"288.7170","MEAN_MOTION_DDOT":"0.0000000000000","MEAN_MOTION_DOT":"0.00001619","SEMIMAJOR_AXIS":"6925.361","FILE":"3112758","MEAN_MOTION":"15.06395915","PERIOD":"95.592","SITE":"AFETR","CENTER_NAME":"EARTH","TLE_LINE2":"2 48648  53.0552 288.7170 0000586 111.8623 248.2428 15.06395915 16366","NORAD_CAT_ID":"48648","PERIAPSIS":"546.820","MEAN_ANOMALY":"248.2428","TIME_SYSTEM":"UTC","REF_FRAME":"TEME","EPOCH":"2021-09-10T14:33:07.965216","REV_AT_EPOCH":"1636","MEAN_ELEMENT_THEORY":"SGP4","APOAPSIS":"547.632","BSTAR":"0.00012757000000","ECCENTRICITY":"0.00005860","INCLINATION":"53.0552","ARG_OF_PERICENTER":"111.8623","RCS_SIZE":"LARGE","LAUNCH_DATE":"2021-05-26","OBJECT_ID":"2021-044L","TLE_LINE1":"1 48648U 21044L   21253.60634219  .00001619  00000-0  12757-3 0  9997"},{"SITE":"AFETR","PERIOD":"95.592","FILE":"3112758","MEAN_MOTION":"15.06394621","SEMIMAJOR_AXIS":"6925.365","RA_OF_ASC_NODE":"288.7632","DECAY_DATE":null,"MEAN_MOTION_DOT":"0.00001676","MEAN_MOTION_DDOT":"0.0000000000000","EPHEMERIS_TYPE":"0","OBJECT_TYPE":"PAYLOAD","OBJECT_NAME":"STARLINK-2673","COUNTRY_CODE":"US","ELEMENT_SET_NO":"999","CLASSIFICATION_TYPE":"U","GP_ID":"184475889","OBJECT_ID":"2021-044M","LAUNCH_DATE":"2021-05-26","TLE_LINE1":"1 48649U 21044M   21253.60360161  .00001676  00000-0  13141-3 0  9991","ARG_OF_PERICENTER":"108.7390","INCLINATION":"53.0501","ECCENTRICITY":"0.00005530","BSTAR":"0.00013141000000","RCS_SIZE":"LARGE","REV_AT_EPOCH":"1635","APOAPSIS":"547.613","MEAN_ELEMENT_THEORY":"SGP4","MEAN_ANOMALY":"251.3659","TLE_LINE2":"2 48649  53.0501 288.7632 0000553 108.7390 251.3659 15.06394621 16357","NORAD_CAT_ID":"48649","PERIAPSIS":"546.847","CENTER_NAME":"EARTH","EPOCH":"2021-09-10T14:29:11.179104","REF_FRAME":"TEME","TIME_SYSTEM":"UTC"},{"MEAN_MOTION":"15.06394283","FILE":"3112758","SITE":"AFETR","PERIOD":"95.593","SEMIMAJOR_AXIS":"6925.366","MEAN_MOTION_DDOT":"0.0000000000000","MEAN_MOTION_DOT":"0.00000913","DECAY_DATE":null,"RA_OF_ASC_NODE":"289.3455","ELEMENT_SET_NO":"999","GP_ID":"184475608","CLASSIFICATION_TYPE":"U","OBJECT_NAME":"STARLINK-2672","COUNTRY_CODE":"US","EPHEMERIS_TYPE":"0","OBJECT_TYPE":"PAYLOAD","TLE_LINE1":"1 48650U 21044N   21253.46721493  .00000913  00000-0  80184-4 0  9991","OBJECT_ID":"2021-044N","LAUNCH_DATE":"2021-05-26","RCS_SIZE":"LARGE","BSTAR":"0.00008018400000","INCLINATION":"53.0520","ARG_OF_PERICENTER":"166.0106","ECCENTRICITY":"0.00002250","APOAPSIS":"547.387","MEAN_ELEMENT_THEORY":"SGP4","REV_AT_EPOCH":"1633","REF_FRAME":"TEME","TIME_SYSTEM":"UTC","EPOCH":"2021-09-10T11:12:47.369952","TLE_LINE2":"2 48650  53.0520 289.3455 0000225 166.0106 194.0889 15.06394283 16338","NORAD_CAT_ID":"48650","PERIAPSIS":"547.075","CENTER_NAME":"EARTH","MEAN_ANOMALY":"194.0889"},{"BSTAR":"0.00009291500000","ARG_OF_PERICENTER":"153.1638","INCLINATION":"53.0540","ECCENTRICITY":"0.00003340","RCS_SIZE":"LARGE","OBJECT_ID":"2021-044P","LAUNCH_DATE":"2021-05-26","TLE_LINE1":"1 48651U 21044P   21253.59622143  .00001103  00000-0  92915-4 0  9995","PERIAPSIS":"546.971","TLE_LINE2":"2 48651  53.0540 288.7643 0000334 153.1638 206.9368 15.06403822 16358","NORAD_CAT_ID":"48651","CENTER_NAME":"EARTH","MEAN_ANOMALY":"206.9368","REF_FRAME":"TEME","TIME_SYSTEM":"UTC","EPOCH":"2021-09-10T14:18:33.531552","REV_AT_EPOCH":"1635","MEAN_ELEMENT_THEORY":"SGP4","APOAPSIS":"547.433","SEMIMAJOR_AXIS":"6925.337","MEAN_MOTION":"15.06403822","FILE":"3112758","SITE":"AFETR","PERIOD":"95.592","EPHEMERIS_TYPE":"0","OBJECT_TYPE":"PAYLOAD","ELEMENT_SET_NO":"999","GP_ID":"184476118","CLASSIFICATION_TYPE":"U","OBJECT_NAME":"STARLINK-2731","COUNTRY_CODE":"US","DECAY_DATE":null,"RA_OF_ASC_NODE":"288.7643","MEAN_MOTION_DDOT":"0.0000000000000","MEAN_MOTION_DOT":"0.00001103"},{"SEMIMAJOR_AXIS":"6925.371","SITE":"AFETR","PERIOD":"95.593","MEAN_MOTION":"15.06392595","FILE":"3112362","OBJECT_NAME":"STARLINK-2727","COUNTRY_CODE":"US","ELEMENT_SET_NO":"999","CLASSIFICATION_TYPE":"U","GP_ID":"184443381","OBJECT_TYPE":"PAYLOAD","EPHEMERIS_TYPE":"0","MEAN_MOTION_DOT":"-0.00001086","MEAN_MOTION_DDOT":"0.0000000000000","RA_OF_ASC_NODE":"290.5618","DECAY_DATE":null,"RCS_SIZE":"LARGE","INCLINATION":"53.0534","ARG_OF_PERICENTER":"118.8087","ECCENTRICITY":"0.00005750","BSTAR":"-0.00005405700000","TLE_LINE1":"1 48652U 21044Q   21253.19446004 -.00001086  00000-0 -54057-4 0  9999","LAUNCH_DATE":"2021-05-26","OBJECT_ID":"2021-044Q","EPOCH":"2021-09-10T04:40:01.347456","REF_FRAME":"TEME","TIME_SYSTEM":"UTC","MEAN_ANOMALY":"241.2960","TLE_LINE2":"2 48652  53.0534 290.5618 0000575 118.8087 241.2960 15.06392595 16295","NORAD_CAT_ID":"48652","PERIAPSIS":"546.838","CENTER_NAME":"EARTH","MEAN_ELEMENT_THEORY":"SGP4","APOAPSIS":"547.634","REV_AT_EPOCH":"1629"},{"FILE":"3112362","MEAN_MOTION":"15.06394718","PERIOD":"95.592","SITE":"AFETR","SEMIMAJOR_AXIS":"6925.365","DECAY_DATE":null,"RA_OF_ASC_NODE":"290.5828","MEAN_MOTION_DDOT":"0.0000000000000","MEAN_MOTION_DOT":"-0.00001009","OBJECT_TYPE":"PAYLOAD","EPHEMERIS_TYPE":"0","GP_ID":"184443288","CLASSIFICATION_TYPE":"U","ELEMENT_SET_NO":"999","COUNTRY_CODE":"US","OBJECT_NAME":"STARLINK-2720","OBJECT_ID":"2021-044R","LAUNCH_DATE":"2021-05-26","TLE_LINE1":"1 48653U 21044R   21253.19077333 -.00001009  00000-0 -48886-4 0  9993","BSTAR":"-0.00004888600000","ECCENTRICITY":"0.00002640","INCLINATION":"53.0551","ARG_OF_PERICENTER":"111.3327","RCS_SIZE":"LARGE","REV_AT_EPOCH":"1629","APOAPSIS":"547.413","MEAN_ELEMENT_THEORY":"SGP4","CENTER_NAME":"EARTH","TLE_LINE2":"2 48653  53.0551 290.5828 0000264 111.3327 248.7690 15.06394718 16299","PERIAPSIS":"547.047","NORAD_CAT_ID":"48653","MEAN_ANOMALY":"248.7690","TIME_SYSTEM":"UTC","REF_FRAME":"TEME","EPOCH":"2021-09-10T04:34:42.815712"}];
